{"type": "FeatureCollection", "features": [ {"type": "Feature", "properties": {"norad_id": 34014, "name": "COSMOS 2251 DEB", "group": "cosmos-2251-debris", "lat": -19.650999096342492, "lon": 123.02390430856119, "alt_km": 669.7718705107563, "timestamp": "2025-12-04T07:39:36.525340+00:00", "meta": {"OBJECT_NAME": "COSMOS 2251 DEB", "OBJECT_ID": "1993-036GZ", "EPOCH": "2025-12-03T22:51:35.326080", "MEAN_MOTION": 14.72951838, "ECCENTRICITY": 0.0036754, "INCLINATION": 74.0171, "RA_OF_ASC_NODE": 297.8644, "ARG_OF_PERICENTER": 79.9499, "MEAN_ANOMALY": 336.4842, "EPHEMERIS_TYPE": 0, "CLASSIFICATION_TYPE": "U", "NORAD_CAT_ID": 34014, "ELEMENT_SET_NO": 999, "REV_AT_EPOCH": 89174, "BSTAR": 0.0020116148, "MEAN_MOTION_DOT": 0.00013039, "MEAN_MOTION_DDOT": 0}, "tle": {"line1": "1 34014U 93036GZ  25337.95249220  .00013039  00000+0  20116-2 0  9993", "line2": "2 34014  74.0171 297.8644 0036754  79.9499 336.4842 14.72951838891743"}}, "geometry": {"type": "Point", "coordinates": [123.02390430856119, -19.650999096342492]}}, {"type": "Feature", "properties": {"norad_id": 34015, "name": "COSMOS 2251 DEB", "group": "cosmos-2251-debris", "lat": -12.755463853939972, "lon": 171.78950760236404, "alt_km": 692.9306760074123, "timestamp": "2025-12-04T07:39:36.525349+00:00", "meta": {"OBJECT_NAME": "COSMOS 2251 DEB", "OBJECT_ID": "1993-036HA", "EPOCH": "2025-12-03T20:16:48.185760", "MEAN_MOTION": 14.60065774, "ECCENTRICITY": 0.00212138, "INCLINATION": 74.0233, "RA_OF_ASC_NODE": 176.4133, "ARG_OF_PERICENTER": 273.7846, "MEAN_ANOMALY": 101.4842, "EPHEMERIS_TYPE": 0, "CLASSIFICATION_TYPE": "U", "NORAD_CAT_ID": 34015, "ELEMENT_SET_NO": 999, "REV_AT_EPOCH": 88401, "BSTAR": 0.0017265095, "MEAN_MOTION_DOT": 8.304e-05, "MEAN_MOTION_DDOT": 0}, "tle": {"line1": "1 34015U 93036HA  25337.84500215  .00008304  00000+0  17265-2 0  9996", "line2": "2 34015  74.0233 176.4133 0021213 273.7846 101.4842 14.60065774884016"}}, "geometry": {"type": "Point", "coordinates": [171.78950760236404, -12.755463853939972]}}, {"type": "Feature", "properties": {"norad_id": 34018, "name": "COSMOS 2251 DEB", "group": "cosmos-2251-debris", "lat": 2.3187459699417765, "lon": 107.03610442788842, "alt_km": 1111.7619720573848, "timestamp": "2025-12-04T07:39:36.525358+00:00", "meta": {"OBJECT_NAME": "COSMOS 2251 DEB", "OBJECT_ID": "1993-036HD", "EPOCH": "2025-12-03T18:18:39.976416", "MEAN_MOTION": 13.81049036, "ECCENTRICITY": 0.0264283, "INCLINATION": 73.8768, "RA_OF_ASC_NODE": 107.3073, "ARG_OF_PERICENTER": 144.884, "MEAN_ANOMALY": 335.2544, "EPHEMERIS_TYPE": 0, "CLASSIFICATION_TYPE": "U", "NORAD_CAT_ID": 34018, "ELEMENT_SET_NO": 999, "REV_AT_EPOCH": 84533, "BSTAR": 0.00087209633, "MEAN_MOTION_DOT": 1.179e-05, "MEAN_MOTION_DDOT": 0}, "tle": {"line1": "1 34018U 93036HD  25337.76296269  .00001179  00000+0  87210-3 0  9992", "line2": "2 34018  73.8768 107.3073 0264283 144.8840 335.2544 13.81049036845336"}}, "geometry": {"type": "Point", "coordinates": [107.03610442788842, 2.3187459699417765]}}, {"type": "Feature", "properties": {"norad_id": 34019, "name": "COSMOS 2251 DEB", "group": "cosmos-2251-debris", "lat": -28.880453359684655, "lon": 57.091699903831554, "alt_km": 777.3141087125277, "timestamp": "2025-12-04T07:39:36.525367+00:00", "meta": {"OBJECT_NAME": "COSMOS 2251 DEB", "OBJECT_ID": "1993-036HE", "EPOCH": "2025-12-03T17:19:08.157216", "MEAN_MOTION": 14.33860299, "ECCENTRICITY": 0.00627052, "INCLINATION": 73.9549, "RA_OF_ASC_NODE": 67.3235, "ARG_OF_PERICENTER": 249.815, "MEAN_ANOMALY": 236.1392, "EPHEMERIS_TYPE": 0, "CLASSIFICATION_TYPE": "U", "NORAD_CAT_ID": 34019, "ELEMENT_SET_NO": 999, "REV_AT_EPOCH": 87391, "BSTAR": 0.0014980516, "MEAN_MOTION_DOT": 4.239e-05, "MEAN_MOTION_DDOT": 0}, "tle": {"line1": "1 34019U 93036HE  25337.72162219  .00004239  00000+0  14981-2 0  9990", "line2": "2 34019  73.9549  67.3235 0062705 249.8150 236.1392 14.33860299873910"}}, "geometry": {"type": "Point", "coordinates": [57.091699903831554, -28.880453359684655]}}, {"type": "Feature", "properties": {"norad_id": 34021, "name": "COSMOS 2251 DEB", "group": "cosmos-2251-debris", "lat": -53.39745516198184, "lon": 122.96728592593713, "alt_km": 718.2844510384512, "timestamp": "2025-12-04T07:39:36.525376+00:00", "meta": {"OBJECT_NAME": "COSMOS 2251 DEB", "OBJECT_ID": "1993-036HG", "EPOCH": "2025-12-03T12:20:09.809952", "MEAN_MOTION": 14.4989198, "ECCENTRICITY": 0.00207279, "INCLINATION": 74.0345, "RA_OF_ASC_NODE": 147.1497, "ARG_OF_PERICENTER": 292.0601, "MEAN_ANOMALY": 130.3655, "EPHEMERIS_TYPE": 0, "CLASSIFICATION_TYPE": "U", "NORAD_CAT_ID": 34021, "ELEMENT_SET_NO": 999, "REV_AT_EPOCH": 88496, "BSTAR": 0.00063145798, "MEAN_MOTION_DOT": 2.419e-05, "MEAN_MOTION_DDOT": 0}, "tle": {"line1": "1 34021U 93036HG  25337.51400243  .00002419  00000+0  63146-3 0  9998", "line2": "2 34021  74.0345 147.1497 0020727 292.0601 130.3655 14.49891980884967"}}, "geometry": {"type": "Point", "coordinates": [122.96728592593713, -53.39745516198184]}}, {"type": "Feature", "properties": {"norad_id": 34022, "name": "COSMOS 2251 DEB", "group": "cosmos-2251-debris", "lat": 73.90002139040828, "lon": 24.18003512946652, "alt_km": 757.1496521208073, "timestamp": "2025-12-04T07:39:36.525385+00:00", "meta": {"OBJECT_NAME": "COSMOS 2251 DEB", "OBJECT_ID": "1993-036HH", "EPOCH": "2025-12-03T21:29:44.193696", "MEAN_MOTION": 14.38940872, "ECCENTRICITY": 0.00223869, "INCLINATION": 74.0537, "RA_OF_ASC_NODE": 287.0907, "ARG_OF_PERICENTER": 353.6869, "MEAN_ANOMALY": 65.1918, "EPHEMERIS_TYPE": 0, "CLASSIFICATION_TYPE": "U", "NORAD_CAT_ID": 34022, "ELEMENT_SET_NO": 999, "REV_AT_EPOCH": 88068, "BSTAR": 0.00046421758, "MEAN_MOTION_DOT": 1.409e-05, "MEAN_MOTION_DDOT": 0}, "tle": {"line1": "1 34022U 93036HH  25337.89565039  .00001409  00000+0  46422-3 0  9991", "line2": "2 34022  74.0537 287.0907 0022386 353.6869  65.1918 14.38940872880689"}}, "geometry": {"type": "Point", "coordinates": [24.18003512946652, 73.90002139040828]}}, {"type": "Feature", "properties": {"norad_id": 34023, "name": "COSMOS 2251 DEB", "group": "cosmos-2251-debris", "lat": -35.545255423845475, "lon": -104.48392396333391, "alt_km": 753.01437183698, "timestamp": "2025-12-04T07:39:36.525394+00:00", "meta": {"OBJECT_NAME": "COSMOS 2251 DEB", "OBJECT_ID": "1993-036HJ", "EPOCH": "2025-12-03T05:51:38.172384", "MEAN_MOTION": 14.40524866, "ECCENTRICITY": 0.0018049, "INCLINATION": 74.0248, "RA_OF_ASC_NODE": 269.315, "ARG_OF_PERICENTER": 6.5951, "MEAN_ANOMALY": 143.9398, "EPHEMERIS_TYPE": 0, "CLASSIFICATION_TYPE": "U", "NORAD_CAT_ID": 34023, "ELEMENT_SET_NO": 999, "REV_AT_EPOCH": 88077, "BSTAR": 0.00054995, "MEAN_MOTION_DOT": 1.728e-05, "MEAN_MOTION_DDOT": 0}, "tle": {"line1": "1 34023U 93036HJ  25337.24419181  .00001728  00000+0  54995-3 0  9995", "line2": "2 34023  74.0248 269.3150 0018049   6.5951 143.9398 14.40524866880770"}}, "geometry": {"type": "Point", "coordinates": [-104.48392396333391, -35.545255423845475]}}, {"type": "Feature", "properties": {"norad_id": 34024, "name": "COSMOS 2251 DEB", "group": "cosmos-2251-debris", "lat": 48.31881500688736, "lon": 132.68818505007056, "alt_km": 772.7942440183006, "timestamp": "2025-12-04T07:39:36.525404+00:00", "meta": {"OBJECT_NAME": "COSMOS 2251 DEB", "OBJECT_ID": "1993-036HK", "EPOCH": "2025-12-03T18:30:19.565856", "MEAN_MOTION": 14.35379381, "ECCENTRICITY": 0.00206241, "INCLINATION": 74.0462, "RA_OF_ASC_NODE": 332.4325, "ARG_OF_PERICENTER": 25.5346, "MEAN_ANOMALY": 152.0381, "EPHEMERIS_TYPE": 0, "CLASSIFICATION_TYPE": "U", "NORAD_CAT_ID": 34024, "ELEMENT_SET_NO": 999, "REV_AT_EPOCH": 87895, "BSTAR": 0.00029056085, "MEAN_MOTION_DOT": 8.1e-06, "MEAN_MOTION_DDOT": 0}, "tle": {"line1": "1 34024U 93036HK  25337.77105979  .00000810  00000+0  29056-3 0  9992", "line2": "2 34024  74.0462 332.4325 0020624  25.5346 152.0381 14.35379381878950"}}, "geometry": {"type": "Point", "coordinates": [132.68818505007056, 48.31881500688736]}}, {"type": "Feature", "properties": {"norad_id": 34026, "name": "COSMOS 2251 DEB", "group": "cosmos-2251-debris", "lat": -17.96893180097266, "lon": -14.131823227811067, "alt_km": 1139.295000595016, "timestamp": "2025-12-04T07:39:36.525413+00:00", "meta": {"OBJECT_NAME": "COSMOS 2251 DEB", "OBJECT_ID": "1993-036HM", "EPOCH": "2025-12-03T11:29:01.814208", "MEAN_MOTION": 13.65279023, "ECCENTRICITY": 0.03512242, "INCLINATION": 73.7673, "RA_OF_ASC_NODE": 352.6869, "ARG_OF_PERICENTER": 224.0439, "MEAN_ANOMALY": 303.3294, "EPHEMERIS_TYPE": 0, "CLASSIFICATION_TYPE": "U", "NORAD_CAT_ID": 34026, "ELEMENT_SET_NO": 999, "REV_AT_EPOCH": 83405, "BSTAR": 0.0013492976, "MEAN_MOTION_DOT": 1.647e-05, "MEAN_MOTION_DDOT": 0}, "tle": {"line1": "1 34026U 93036HM  25337.47849322  .00001647  00000+0  13493-2 0  9994", "line2": "2 34026  73.7673 352.6869 0351224 224.0439 303.3294 13.65279023834052"}}, "geometry": {"type": "Point", "coordinates": [-14.131823227811067, -17.96893180097266]}}, {"type": "Feature", "properties": {"norad_id": 34028, "name": "COSMOS 2251 DEB", "group": "cosmos-2251-debris", "lat": -73.7531618035991, "lon": -82.63557110141983, "alt_km": 1455.044186996147, "timestamp": "2025-12-04T07:39:36.525423+00:00", "meta": {"OBJECT_NAME": "COSMOS 2251 DEB", "OBJECT_ID": "1993-036HP", "EPOCH": "2025-12-03T20:17:11.546592", "MEAN_MOTION": 13.20615691, "ECCENTRICITY": 0.05440939, "INCLINATION": 73.8836, "RA_OF_ASC_NODE": 0.8871, "ARG_OF_PERICENTER": 140.2533, "MEAN_ANOMALY": 34.8225, "EPHEMERIS_TYPE": 0, "CLASSIFICATION_TYPE": "U", "NORAD_CAT_ID": 34028, "ELEMENT_SET_NO": 999, "REV_AT_EPOCH": 80890, "BSTAR": 0.00023468753, "MEAN_MOTION_DOT": 1.9e-06, "MEAN_MOTION_DDOT": 0}, "tle": {"line1": "1 34028U 93036HP  25337.84527253  .00000190  00000+0  23469-3 0  9990", "line2": "2 34028  73.8836   0.8871 0544093 140.2533  34.8225 13.20615691808904"}}, "geometry": {"type": "Point", "coordinates": [-82.63557110141983, -73.7531618035991]}}]}